{
"type": "FeatureCollection",
"name": "Ballot_Drop_Boxes",
"crs": { "type": "name", "properties": { "name": "urn:ogc:def:crs:OGC:1.3:CRS84" } },
"features": [
{ "type": "Feature", "properties": { "OBJECTID_1": 1, "OBJECTID": 3, "NAME": "Monument Park & Ride", "ADDRESS": "I-25 at exit 161" }, "geometry": { "type": "Point", "coordinates": [ -104.861894960200175, 39.094175035963794 ] } },
{ "type": "Feature", "properties": { "OBJECTID_1": 2, "OBJECTID": 36, "NAME": "First and Main", "ADDRESS": "New Center Point" }, "geometry": { "type": "Point", "coordinates": [ -104.718938358169808, 38.880164711013258 ] } },
{ "type": "Feature", "properties": { "OBJECTID_1": 3, "OBJECTID": 22, "NAME": "Tiffany Square", "ADDRESS": "6805 Corporate Dr." }, "geometry": { "type": "Point", "coordinates": [ -104.814714275832301, 38.932265466958512 ] } },
{ "type": "Feature", "properties": { "OBJECTID_1": 4, "OBJECTID": 25, "NAME": "Black Forest FPD", "ADDRESS": "11445 Teachout Rd." }, "geometry": { "type": "Point", "coordinates": [ -104.696813199639053, 38.997620810686549 ] } },
{ "type": "Feature", "properties": { "OBJECTID_1": 5, "OBJECTID": 4, "NAME": "UCCS", "ADDRESS": "1420 Austin Bluffs Pkwy." }, "geometry": { "type": "Point", "coordinates": [ -104.800322699752684, 38.89224163030277 ] } },
{ "type": "Feature", "properties": { "OBJECTID_1": 6, "OBJECTID": 5, "NAME": "PPCC - Rampart Range Campus", "ADDRESS": "2070 Interquest Pkwy." }, "geometry": { "type": "Point", "coordinates": [ -104.787737807172931, 38.992613208755664 ] } },
{ "type": "Feature", "properties": { "OBJECTID_1": 7, "OBJECTID": 23, "NAME": "Fort Carson", "ADDRESS": "6351 Wetzel Ave., Bldg 1525" }, "geometry": { "type": "Point", "coordinates": [ -104.789828370375119, 38.739934613121754 ] } },
{ "type": "Feature", "properties": { "OBJECTID_1": 8, "OBJECTID": 31, "NAME": "Leon Young Sports Complex", "ADDRESS": "1335 S Chelton Rd." }, "geometry": { "type": "Point", "coordinates": [ -104.762207152122258, 38.813387591543488 ] } },
{ "type": "Feature", "properties": { "OBJECTID_1": 9, "OBJECTID": 13, "NAME": "North Office", "ADDRESS": "8830 N. Union Blvd." }, "geometry": { "type": "Point", "coordinates": [ -104.766307521522251, 38.959503242180979 ] } },
{ "type": "Feature", "properties": { "OBJECTID_1": 10, "OBJECTID": 7, "NAME": "Manitou Springs", "ADDRESS": "606 Manitou Ave." }, "geometry": { "type": "Point", "coordinates": [ -104.912501268603819, 38.857800844722441 ] } },
{ "type": "Feature", "properties": { "OBJECTID_1": 11, "OBJECTID": 14, "NAME": "SE Office", "ADDRESS": "5650 Industrial Pl." }, "geometry": { "type": "Point", "coordinates": [ -104.722894352578919, 38.823701800684319 ] } },
{ "type": "Feature", "properties": { "OBJECTID_1": 12, "OBJECTID": 26, "NAME": "Fountain Creek Regional Park", "ADDRESS": "SW Corner of Hwy. 85/87 & Duckwood Rd." }, "geometry": { "type": "Point", "coordinates": [ -104.712363261415561, 38.709148418524158 ] } },
{ "type": "Feature", "properties": { "OBJECTID_1": 13, "OBJECTID": 34, "NAME": "Wilson Ranch Pool", "ADDRESS": "2335 Allegheny Dr." }, "geometry": { "type": "Point", "coordinates": [ -104.871473519121466, 38.929865784900194 ] } },
{ "type": "Feature", "properties": { "OBJECTID_1": 14, "OBJECTID": 6, "NAME": "PPCC - Centennial Campus", "ADDRESS": "5675 S Academy Blvd." }, "geometry": { "type": "Point", "coordinates": [ -104.787085146269149, 38.764778293297198 ] } },
{ "type": "Feature", "properties": { "OBJECTID_1": 15, "OBJECTID": 18, "NAME": "Ellicott School Admin Bldg", "ADDRESS": "322 S. Ellicott Hwy." }, "geometry": { "type": "Point", "coordinates": [ -104.387087840642579, 38.825136861500631 ] } },
{ "type": "Feature", "properties": { "OBJECTID_1": 16, "OBJECTID": 27, "NAME": "Boot Barn Hall", "ADDRESS": "13071 Bass Pro Dr." }, "geometry": { "type": "Point", "coordinates": [ -104.824921877538216, 39.023174870809953 ] } },
{ "type": "Feature", "properties": { "OBJECTID_1": 17, "OBJECTID": 33, "NAME": "Vista Grande Baptist Church", "ADDRESS": "5680 Stetson Hills Blvd." }, "geometry": { "type": "Point", "coordinates": [ -104.721408182098756, 38.91229783088172 ] } },
{ "type": "Feature", "properties": { "OBJECTID_1": 18, "OBJECTID": 32, "NAME": "Rocky Mountain Cavalry Church", "ADDRESS": "4285 N Academy Blvd." }, "geometry": { "type": "Point", "coordinates": [ -104.756440548974808, 38.894789931076886 ] } },
{ "type": "Feature", "properties": { "OBJECTID_1": 19, "OBJECTID": 1, "NAME": "Downtown Office 2", "ADDRESS": "200 S. Cascade Ave." }, "geometry": { "type": "Point", "coordinates": [ -104.825856099285673, 38.830046486313719 ] } },
{ "type": "Feature", "properties": { "OBJECTID_1": 20, "OBJECTID": 2, "NAME": "Pikes Peak Regional Dev Cntr", "ADDRESS": "2880 International Cir." }, "geometry": { "type": "Point", "coordinates": [ -104.789982517390584, 38.82649897936632 ] } },
{ "type": "Feature", "properties": { "OBJECTID_1": 21, "OBJECTID": 10, "NAME": "Colorado Springs  Admin Bldg", "ADDRESS": "30 S. Nevada Ave." }, "geometry": { "type": "Point", "coordinates": [ -104.82220007241736, 38.83262405941646 ] } },
{ "type": "Feature", "properties": { "OBJECTID_1": 22, "OBJECTID": 28, "NAME": "Citadel Mall", "ADDRESS": "750 Citadel Dr. E" }, "geometry": { "type": "Point", "coordinates": [ -104.763188237730915, 38.844060790398281 ] } },
{ "type": "Feature", "properties": { "OBJECTID_1": 23, "OBJECTID": 20, "NAME": "Monument Town Hall", "ADDRESS": "645 Beacon Lite Rd." }, "geometry": { "type": "Point", "coordinates": [ -104.868483256108405, 39.097456007006237 ] } },
{ "type": "Feature", "properties": { "OBJECTID_1": 24, "OBJECTID": 8, "NAME": "Main Office", "ADDRESS": "1675 W. Garden of the Gods Rd." }, "geometry": { "type": "Point", "coordinates": [ -104.859532951004809, 38.89567992111774 ] } },
{ "type": "Feature", "properties": { "OBJECTID_1": 25, "OBJECTID": 17, "NAME": "Black Forest Park & Ride", "ADDRESS": "Black Forest Rd. and Woodmen Rd." }, "geometry": { "type": "Point", "coordinates": [ -104.701647970715797, 38.941756873127453 ] } },
{ "type": "Feature", "properties": { "OBJECTID_1": 26, "OBJECTID": 9, "NAME": "Downtown Office", "ADDRESS": "200 S. Cascade Ave." }, "geometry": { "type": "Point", "coordinates": [ -104.826703484357296, 38.83019979301902 ] } },
{ "type": "Feature", "properties": { "OBJECTID_1": 27, "OBJECTID": 30, "NAME": "Cottonwood Creek Park", "ADDRESS": "3920 Dublin Blvd." }, "geometry": { "type": "Point", "coordinates": [ -104.75454688269572, 38.926980835006184 ] } },
{ "type": "Feature", "properties": { "OBJECTID_1": 28, "OBJECTID": 35, "NAME": "School District 3 Federal Credit Union", "ADDRESS": "1180 Crawford Ave." }, "geometry": { "type": "Point", "coordinates": [ -104.719594226253307, 38.749508036371779 ] } },
{ "type": "Feature", "properties": { "OBJECTID_1": 29, "OBJECTID": 37, "NAME": "Southgate", "ADDRESS": "2050 Southgate Rd." }, "geometry": { "type": "Point", "coordinates": [ -104.820341783589612, 38.803347009345288 ] } },
{ "type": "Feature", "properties": { "OBJECTID_1": 30, "OBJECTID": 19, "NAME": "EPC Public Services", "ADDRESS": "1010 Golden St." }, "geometry": { "type": "Point", "coordinates": [ -104.2971777493632, 39.031754758535669 ] } },
{ "type": "Feature", "properties": { "OBJECTID_1": 31, "OBJECTID": 11, "NAME": "East Library", "ADDRESS": "5550 N. Union Blvd." }, "geometry": { "type": "Point", "coordinates": [ -104.777397503066865, 38.912564848415776 ] } },
{ "type": "Feature", "properties": { "OBJECTID_1": 32, "OBJECTID": 21, "NAME": "Fountain Police Dept", "ADDRESS": "222 N. Santa Fe Ave." }, "geometry": { "type": "Point", "coordinates": [ -104.704333977671524, 38.685208545429624 ] } },
{ "type": "Feature", "properties": { "OBJECTID_1": 33, "OBJECTID": 29, "NAME": "Colorado Springs Senior Center", "ADDRESS": "1514 N Hancock Ave." }, "geometry": { "type": "Point", "coordinates": [ -104.803459130765376, 38.854706989213518 ] } },
{ "type": "Feature", "properties": { "OBJECTID_1": 34, "OBJECTID": 16, "NAME": "Falcon FPD Station 1", "ADDRESS": "12072 Royal County Down Rd." }, "geometry": { "type": "Point", "coordinates": [ -104.602040384236801, 38.969099149348907 ] } },
{ "type": "Feature", "properties": { "OBJECTID_1": 35, "OBJECTID": 24, "NAME": "Bear Creek Community Garden", "ADDRESS": "2002 Creek Crossing" }, "geometry": { "type": "Point", "coordinates": [ -104.857207045289428, 38.822724649362705 ] } },
{ "type": "Feature", "properties": { "OBJECTID_1": 36, "OBJECTID": 15, "NAME": "Transportation & Environmental Complex", "ADDRESS": "3275 Akers Dr." }, "geometry": { "type": "Point", "coordinates": [ -104.688652192661863, 38.881728892643096 ] } },
{ "type": "Feature", "properties": { "OBJECTID_1": 37, "OBJECTID": 12, "NAME": "Library 21C", "ADDRESS": "1175 Chapel Hills Dr." }, "geometry": { "type": "Point", "coordinates": [ -104.792546763061324, 38.953446303077101 ] } },
{ "type": "Feature", "properties": { "OBJECTID_1": 38, "OBJECTID": 38, "NAME": "Widefield Water & Sanitation", "ADDRESS": "8495 Fontaine Blvd." }, "geometry": { "type": "Point", "coordinates": [ -104.673007314555946, 38.736971541073736 ] } },
{ "type": "Feature", "properties": { "OBJECTID_1": 39, "OBJECTID": 39, "NAME": "Falcon Park and Ride", "ADDRESS": "11858 Swingline Rd." }, "geometry": { "type": "Point", "coordinates": [ -104.608638329718175, 38.929805020401908 ] } }
]
}
