{"type": "FeatureCollection", "features": [{"type": "Feature", "properties": {"name": "Colorado Springs 11 School District", "lgid": "21904"}, "geometry": {"type": "Polygon", "coordinates": [[[-104.905391997, 38.926124311], [-104.885173993, 38.926291313], [-104.886277, 38.937182], [-104.886712, 38.936714], [-104.891269, 38.936732], [-104.891263, 38.940343], [-104.886702, 38.940327], [-104.886736995, 38.944066315], [-104.877048993, 38.943918316], [-104.874888992, 38.941469316], [-104.875124992, 38.941313316], [-104.872790991, 38.940490316], [-104.871963991, 38.939042315], [-104.86974299, 38.936545315], [-104.86914999, 38.936267315], [-104.867430989, 38.934792315], [-104.866589989, 38.933220315], [-104.866039989, 38.932505315], [-104.865447989, 38.931214315], [-104.863461988, 38.928303314], [-104.856608985, 38.914520313], [-104.855997984, 38.911563313], [-104.855886984, 38.911367313], [-104.855191984, 38.911371313], [-104.855165984, 38.910021312], [-104.854666984, 38.909471312], [-104.851714983, 38.907317312], [-104.851695983, 38.906948312], [-104.850560982, 38.905423312], [-104.851336982, 38.903113312], [-104.851750982, 38.902604312], [-104.851592982, 38.901062311], [-104.851830982, 38.899959311], [-104.848371981, 38.900052311], [-104.848371981, 38.901224312], [-104.844694981, 38.901214312], [-104.84301498, 38.901402312], [-104.84216498, 38.901788312], [-104.84204198, 38.902138312], [-104.835760978, 38.900718312], [-104.832839978, 38.900749313], [-104.831227977, 38.901055313], [-104.831164977, 38.899700313], [-104.830137977, 38.899450313], [-104.829449977, 38.899104313], [-104.828864, 38.90055], [-104.828528, 38.900472], [-104.827429, 38.903299], [-104.826217, 38.90629], [-104.825085, 38.908515], [-104.823993, 38.909901], [-104.822663977, 38.911139315], [-104.822227, 38.911451], [-104.817832, 38.914714], [-104.816521, 38.915909], [-104.815666, 38.917084], [-104.814932, 38.918539], [-104.814491, 38.920111], [-104.814211, 38.921907], [-104.813631, 38.925602], [-104.811496, 38.925699], [-104.811164, 38.925793], [-104.808903975, 38.925798318], [-104.802362973, 38.925776318], [-104.797641972, 38.924651318], [-104.797071972, 38.924619318], [-104.795335972, 38.925578319], [-104.794685972, 38.925726319], [-104.793817, 38.925712], [-104.793461, 38.925729], [-104.793193, 38.925773], [-104.792877, 38.925909], [-104.792782, 38.925994], [-104.792502, 38.925675], [-104.789595971, 38.925839319], [-104.788098, 38.925834], [-104.788067, 38.925625], [-104.787976, 38.925437], [-104.787481, 38.925563], [-104.787551, 38.925721], [-104.787573, 38.925839], [-104.787171, 38.925928], [-104.785719, 38.924959], [-104.784645, 38.925763], [-104.784057, 38.925741], [-104.78397, 38.925792], [-104.775110967, 38.92583332], [-104.775108968, 38.92905432], [-104.774931968, 38.929326321], [-104.770521967, 38.929625321], [-104.766825966, 38.930127321], [-104.764806965, 38.930051321], [-104.762733965, 38.930854322], [-104.761534965, 38.930563322], [-104.760075964, 38.930488322], [-104.758355964, 38.929943322], [-104.756926963, 38.929972322], [-104.755746963, 38.929668322], [-104.754958963, 38.929711322], [-104.752927963, 38.930275322], [-104.752692963, 38.930743322], [-104.751388962, 38.932119322], [-104.750536962, 38.933331323], [-104.749166962, 38.934589323], [-104.748099962, 38.936710323], [-104.746438962, 38.937723324], [-104.744905962, 38.938422324], [-104.744287961, 38.938299324], [-104.743715961, 38.938784324], [-104.741960961, 38.938956324], [-104.741189961, 38.939368324], [-104.740672961, 38.940102324], [-104.740434961, 38.940214324], [-104.719712956, 38.940205326], [-104.719699955, 38.932371325], [-104.719413955, 38.929923324], [-104.719402953, 38.917299322], [-104.719743951, 38.893884319], [-104.719887948, 38.871023316], [-104.720023948, 38.869158316], [-104.720244, 38.868696], [-104.720276, 38.853423], [-104.710098944, 38.853498314], [-104.705072, 38.853514], [-104.703778, 38.853817], [-104.703604, 38.853431], [-104.702949, 38.853581], [-104.697931, 38.853604], [-104.682881, 38.853686], [-104.682866, 38.853303], [-104.682692938, 38.853313316], [-104.68254, 38.852806], [-104.682528938, 38.851531316], [-104.681666937, 38.850060315], [-104.682597937, 38.849288315], [-104.682803937, 38.848442315], [-104.682797935, 38.827145312], [-104.682725935, 38.825288312], [-104.682407935, 38.824407312], [-104.682613934, 38.817379311], [-104.720337943, 38.817428308], [-104.720261944, 38.825666309], [-104.720350944, 38.825295309], [-104.720448, 38.825104], [-104.720686944, 38.824875309], [-104.721068, 38.824636], [-104.721290944, 38.824561309], [-104.721567, 38.824507], [-104.721894944, 38.824505309], [-104.722276, 38.824515], [-104.724596, 38.824748], [-104.724669, 38.824605], [-104.738721948, 38.825340308], [-104.752521951, 38.825311307], [-104.752512951, 38.821456307], [-104.757492952, 38.821376306], [-104.757507952, 38.821072306], [-104.758775952, 38.821083306], [-104.760115, 38.820568], [-104.761015, 38.820657], [-104.761721, 38.820657], [-104.763178, 38.820578], [-104.766104, 38.820403], [-104.766586954, 38.820311306], [-104.766993, 38.819972], [-104.767746, 38.819495], [-104.767838954, 38.819491305], [-104.767764954, 38.818839305], [-104.767674, 38.818631], [-104.76753, 38.818437], [-104.767442954, 38.818355305], [-104.767815954, 38.818243305], [-104.772284955, 38.818267305], [-104.772728, 38.818249], [-104.773344955, 38.818110305], [-104.774900955, 38.818213305], [-104.775808, 38.818052], [-104.778096956, 38.817945305], [-104.778334, 38.817839], [-104.778463, 38.817668], [-104.778504, 38.817492], [-104.778681956, 38.817458304], [-104.780637957, 38.817506304], [-104.780615957, 38.817108304], [-104.792897959, 38.816723303], [-104.793229, 38.817376], [-104.793763, 38.817663], [-104.810461964, 38.817420302], [-104.812884964, 38.817541302], [-104.813125964, 38.816528302], [-104.813132964, 38.814968302], [-104.811527963, 38.814201302], [-104.810300963, 38.812915302], [-104.810360963, 38.811880302], [-104.811182963, 38.812279302], [-104.811916963, 38.812345301], [-104.813146, 38.812824], [-104.8131, 38.810474], [-104.821047, 38.810419], [-104.821057, 38.809968], [-104.822319965, 38.8099303], [-104.822103965, 38.802714299], [-104.823968965, 38.802705299], [-104.825545965, 38.802954299], [-104.831929967, 38.802973299], [-104.832038967, 38.805288299], [-104.831762967, 38.806284299], [-104.831793968, 38.8098983], [-104.84103697, 38.809931299], [-104.841019971, 38.8172183], [-104.850486973, 38.8171383], [-104.850825974, 38.825043301], [-104.851649974, 38.824630301], [-104.859297976, 38.8247243], [-104.862058976, 38.8243613], [-104.867203977, 38.824319299], [-104.883627, 38.824668], [-104.887315, 38.823148], [-104.887695, 38.823598], [-104.887001, 38.824328], [-104.886589, 38.824764], [-104.886421984, 38.842799301], [-104.886440985, 38.850097302], [-104.886668985, 38.855781303], [-104.886568986, 38.858195303], [-104.886419985, 38.858390303], [-104.886381986, 38.858997303], [-104.886547986, 38.859159303], [-104.886660987, 38.869381305], [-104.886447988, 38.882254306], [-104.886541989, 38.888077307], [-104.88602499, 38.903411309], [-104.885452991, 38.911142311], [-104.905323996, 38.911106309], [-104.905391997, 38.926124311]]]}}]}