{"type": "FeatureCollection", "features": [{"type": "Feature", "properties": {"name": "Adams Elementary", "tier": 3, "tierLabel": "Tier 3", "schoolType": "Elementary", "isCharter": false, "bond": "$1M", "fci": "26.60%", "address": "2101 Manitoba Dr, Colorado Springs, CO 80910", "zip": "80910"}, "geometry": {"type": "Point", "coordinates": [-104.789989, 38.821869]}}, {"type": "Feature", "properties": {"name": "Audubon Elementary", "tier": 2, "tierLabel": "Tier 2", "schoolType": "Elementary", "isCharter": false, "bond": "$2M", "fci": "41.90%", "address": "2400 E Van Buren St, Colorado Springs, CO 80909", "zip": "80909"}, "geometry": {"type": "Point", "coordinates": [-104.789, 38.86]}}, {"type": "Feature", "properties": {"name": "Bristol Elementary", "tier": 1, "tierLabel": "Tier 1", "schoolType": "Elementary", "isCharter": false, "bond": "$7M", "fci": "21.30%", "address": "890 N Walnut St, Colorado Springs, CO 80905", "zip": "80905"}, "geometry": {"type": "Point", "coordinates": [-104.833625, 38.845944]}}, {"type": "Feature", "properties": {"name": "Buena Vista Montessori", "tier": 2, "tierLabel": "Tier 2", "schoolType": "Elementary", "isCharter": false, "bond": "$3M", "fci": "36.40%", "address": "924 W Pikes Peak Ave, Colorado Springs, CO 80905", "zip": "80905"}, "geometry": {"type": "Point", "coordinates": [-104.839691, 38.835324]}}, {"type": "Feature", "properties": {"name": "Carver Elementary", "tier": 3, "tierLabel": "Tier 3", "schoolType": "Elementary", "isCharter": false, "bond": "$1M", "fci": "32.60%", "address": "4740 Artistic Cir, Colorado Springs, CO 80917", "zip": "80917"}, "geometry": {"type": "Point", "coordinates": [-104.740784, 38.888602]}}, {"type": "Feature", "properties": {"name": "Chipeta Elementary", "tier": 2, "tierLabel": "Tier 2", "schoolType": "Elementary", "isCharter": false, "bond": "$3M", "fci": "30.20%", "address": "2340 Ramsgate Ter, Colorado Springs, CO 80919", "zip": "80919"}, "geometry": {"type": "Point", "coordinates": [-104.869945, 38.906489]}}, {"type": "Feature", "properties": {"name": "Columbia Elementary", "tier": 2, "tierLabel": "Tier 2", "schoolType": "Elementary", "isCharter": false, "bond": "$3M", "fci": "29.30%", "address": "835 E St Vrain St, Colorado Springs, CO 80903", "zip": "80903"}, "geometry": {"type": "Point", "coordinates": [-104.809483, 38.840415]}}, {"type": "Feature", "properties": {"name": "Edison Elementary", "tier": 2, "tierLabel": "Tier 2", "schoolType": "Elementary", "isCharter": false, "bond": "$2M", "fci": "\u2014", "address": "3125 N Hancock Ave, Colorado Springs, CO 80907", "zip": "80907"}, "geometry": {"type": "Point", "coordinates": [-104.803355, 38.877495]}}, {"type": "Feature", "properties": {"name": "Freedom Elementary", "tier": 3, "tierLabel": "Tier 3", "schoolType": "Elementary", "isCharter": false, "bond": "$1M", "fci": "20.50%", "address": "5280 Butterfield Dr, Colorado Springs, CO 80923", "zip": "80923"}, "geometry": {"type": "Point", "coordinates": [-104.731005, 38.936186]}}, {"type": "Feature", "properties": {"name": "Fremont Elementary", "tier": 3, "tierLabel": "Tier 3", "schoolType": "Elementary", "isCharter": false, "bond": "$1M", "fci": "34.30%", "address": "5110 El Camino Dr, Colorado Springs, CO 80918", "zip": "80918"}, "geometry": {"type": "Point", "coordinates": [-104.770549, 38.906276]}}, {"type": "Feature", "properties": {"name": "Grant Elementary", "tier": 2, "tierLabel": "Tier 2", "schoolType": "Elementary", "isCharter": false, "bond": "$2M", "fci": "25.10%", "address": "3215 Westwood Blvd, Colorado Springs, CO 80918", "zip": "80918"}, "geometry": {"type": "Point", "coordinates": [-104.767929, 38.896781]}}, {"type": "Feature", "properties": {"name": "Henry Elementary", "tier": 1, "tierLabel": "Tier 1", "schoolType": "Elementary", "isCharter": false, "bond": "$7M", "fci": "35.80%", "address": "1310 Lehmberg Blvd, Colorado Springs, CO 80915", "zip": "80915"}, "geometry": {"type": "Point", "coordinates": [-104.732207, 38.851924]}}, {"type": "Feature", "properties": {"name": "Howbert Elementary", "tier": 2, "tierLabel": "Tier 2", "schoolType": "Elementary", "isCharter": false, "bond": "$2M", "fci": "41.50%", "address": "1023 N 31st St, Colorado Springs, CO 80904", "zip": "80904"}, "geometry": {"type": "Point", "coordinates": [-104.8722, 38.8533]}}, {"type": "Feature", "properties": {"name": "Jackson Elementary", "tier": 3, "tierLabel": "Tier 3", "schoolType": "Elementary", "isCharter": false, "bond": "$1M", "fci": "30.40%", "address": "4340 Edwinstowe Ave, Colorado Springs, CO 80907", "zip": "80907"}, "geometry": {"type": "Point", "coordinates": [-104.838721, 38.892334]}}, {"type": "Feature", "properties": {"name": "Keller Elementary", "tier": 2, "tierLabel": "Tier 2", "schoolType": "Elementary", "isCharter": false, "bond": "$3M", "fci": "29.40%", "address": "3730 E Montebello Dr, Colorado Springs, CO 80918", "zip": "80918"}, "geometry": {"type": "Point", "coordinates": [-104.757938, 38.905205]}}, {"type": "Feature", "properties": {"name": "King Elementary", "tier": 2, "tierLabel": "Tier 2", "schoolType": "Elementary", "isCharter": false, "bond": "$2M", "fci": "25.60%", "address": "6110 Sapporo Dr, Colorado Springs, CO 80918", "zip": "80918"}, "geometry": {"type": "Point", "coordinates": [-104.769342, 38.920339]}}, {"type": "Feature", "properties": {"name": "Madison Elementary", "tier": 2, "tierLabel": "Tier 2", "schoolType": "Elementary", "isCharter": false, "bond": "$3M", "fci": "33.10%", "address": "4120 Constitution Ave, Colorado Springs, CO 80909", "zip": "80909"}, "geometry": {"type": "Point", "coordinates": [-104.749837, 38.861586]}}, {"type": "Feature", "properties": {"name": "Martinez Elementary", "tier": 2, "tierLabel": "Tier 2", "schoolType": "Elementary", "isCharter": false, "bond": "$3M", "fci": "30.00%", "address": "6460 Vickers Dr, Colorado Springs, CO 80918", "zip": "80918"}, "geometry": {"type": "Point", "coordinates": [-104.748539, 38.92291]}}, {"type": "Feature", "properties": {"name": "McAuliffe Elementary", "tier": 2, "tierLabel": "Tier 2", "schoolType": "Elementary", "isCharter": false, "bond": "$3M", "fci": "18.70%", "address": "830 Hathaway Dr, Colorado Springs, CO 80915", "zip": "80915"}, "geometry": {"type": "Point", "coordinates": [-104.708401, 38.843428]}}, {"type": "Feature", "properties": {"name": "Midland Elementary", "tier": 2, "tierLabel": "Tier 2", "schoolType": "Elementary", "isCharter": false, "bond": "$3M", "fci": "32.30%", "address": "2110 Broadway St, Colorado Springs, CO 80904", "zip": "80904"}, "geometry": {"type": "Point", "coordinates": [-104.860181, 38.837371]}}, {"type": "Feature", "properties": {"name": "Monroe Elementary", "tier": 3, "tierLabel": "Tier 3", "schoolType": "Elementary", "isCharter": false, "bond": "$1M", "fci": "34.00%", "address": "15 S Chelton Rd, Colorado Springs, CO 80910", "zip": "80910"}, "geometry": {"type": "Point", "coordinates": [-104.766242, 38.831113]}}, {"type": "Feature", "properties": {"name": "Penrose Elementary", "tier": 2, "tierLabel": "Tier 2", "schoolType": "Elementary", "isCharter": false, "bond": "$2M", "fci": "31.10%", "address": "4285 S Nonchalant Cir, Colorado Springs, CO 80917", "zip": "80917"}, "geometry": {"type": "Point", "coordinates": [-104.747103, 38.879314]}}, {"type": "Feature", "properties": {"name": "Queen Palmer Elementary", "tier": 3, "tierLabel": "Tier 3", "schoolType": "Elementary", "isCharter": false, "bond": "$1M", "fci": "36.60%", "address": "1921 E Yampa St, Colorado Springs, CO 80909", "zip": "80909"}, "geometry": {"type": "Point", "coordinates": [-104.792643, 38.846204]}}, {"type": "Feature", "properties": {"name": "Rogers Elementary", "tier": 2, "tierLabel": "Tier 2", "schoolType": "Elementary", "isCharter": false, "bond": "$2M", "fci": "46.80%", "address": "110 S Circle Dr, Colorado Springs, CO 80910", "zip": "80910"}, "geometry": {"type": "Point", "coordinates": [-104.775948, 38.829609]}}, {"type": "Feature", "properties": {"name": "Rudy Elementary", "tier": 1, "tierLabel": "Tier 1", "schoolType": "Elementary", "isCharter": false, "bond": "$7M", "fci": "31.30%", "address": "5370 Cracker Barrel Cir, Colorado Springs, CO 80917", "zip": "80917"}, "geometry": {"type": "Point", "coordinates": [-104.727765, 38.892557]}}, {"type": "Feature", "properties": {"name": "Scott Elementary", "tier": 2, "tierLabel": "Tier 2", "schoolType": "Elementary", "isCharter": false, "bond": "$2M", "fci": "29.70%", "address": "6175 Whetstone Dr, Colorado Springs, CO 80923", "zip": "80923"}, "geometry": {"type": "Point", "coordinates": [-104.736367, 38.922739]}}, {"type": "Feature", "properties": {"name": "Steele Elementary", "tier": 1, "tierLabel": "Tier 1", "schoolType": "Elementary", "isCharter": false, "bond": "$7M", "fci": "34.20%", "address": "1720 N Weber St, Colorado Springs, CO 80907", "zip": "80907"}, "geometry": {"type": "Point", "coordinates": [-104.818663, 38.857998]}}, {"type": "Feature", "properties": {"name": "Stratton Elementary", "tier": 2, "tierLabel": "Tier 2", "schoolType": "Elementary", "isCharter": false, "bond": "$3M", "fci": "34.80%", "address": "2460 Paseo Rd, Colorado Springs, CO 80907", "zip": "80907"}, "geometry": {"type": "Point", "coordinates": [-104.803007, 38.865747]}}, {"type": "Feature", "properties": {"name": "Taylor Elementary", "tier": 3, "tierLabel": "Tier 3", "schoolType": "Elementary", "isCharter": false, "bond": "$1M", "fci": "39.20%", "address": "900 E Buena Ventura St, Colorado Springs, CO 80907", "zip": "80907"}, "geometry": {"type": "Point", "coordinates": [-104.809106, 38.854603]}}, {"type": "Feature", "properties": {"name": "Trailblazer Elementary", "tier": 3, "tierLabel": "Tier 3", "schoolType": "Elementary", "isCharter": false, "bond": "$1M", "fci": "35.60%", "address": "2015 Wickes Rd, Colorado Springs, CO 80919", "zip": "80919"}, "geometry": {"type": "Point", "coordinates": [-104.865717, 38.920202]}}, {"type": "Feature", "properties": {"name": "Twain Elementary", "tier": 3, "tierLabel": "Tier 3", "schoolType": "Elementary", "isCharter": false, "bond": "$1M", "fci": "36.10%", "address": "3402 E San Miguel St, Colorado Springs, CO 80909", "zip": "80909"}, "geometry": {"type": "Point", "coordinates": [-104.7675, 38.850482]}}, {"type": "Feature", "properties": {"name": "Wilson Elementary", "tier": 3, "tierLabel": "Tier 3", "schoolType": "Elementary", "isCharter": false, "bond": "$1M", "fci": "32.90%", "address": "1409 De Reamer Cir, Colorado Springs, CO 80915", "zip": "80915"}, "geometry": {"type": "Point", "coordinates": [-104.746731, 38.852542]}}, {"type": "Feature", "properties": {"name": "Galileo Middle", "tier": 1, "tierLabel": "Tier 1", "schoolType": "Middle", "isCharter": false, "bond": "$7M", "fci": "35.60%", "address": "1600 N Union Blvd, Colorado Springs, CO 80909", "zip": "80909"}, "geometry": {"type": "Point", "coordinates": [-104.794276, 38.855473]}}, {"type": "Feature", "properties": {"name": "Holmes Middle", "tier": 1, "tierLabel": "Tier 1", "schoolType": "Middle", "isCharter": false, "bond": "$80M", "fci": "36.60%", "address": "2455 Mesa Rd, Colorado Springs, CO 80904", "zip": "80904"}, "geometry": {"type": "Point", "coordinates": [-104.857077, 38.867154]}}, {"type": "Feature", "properties": {"name": "Jenkins Middle", "tier": 1, "tierLabel": "Tier 1", "schoolType": "Middle", "isCharter": false, "bond": "$7M", "fci": "30.60%", "address": "6410 Austin Bluffs Pkwy, Colorado Springs, CO 80923", "zip": "80923"}, "geometry": {"type": "Point", "coordinates": [-104.740544, 38.928411]}}, {"type": "Feature", "properties": {"name": "Mann Middle", "tier": 1, "tierLabel": "Tier 1", "schoolType": "Middle", "isCharter": false, "bond": "$7M", "fci": "36.20%", "address": "1001 E Van Buren St, Colorado Springs, CO 80907", "zip": "80907"}, "geometry": {"type": "Point", "coordinates": [-104.80546, 38.868163]}}, {"type": "Feature", "properties": {"name": "North Middle", "tier": 1, "tierLabel": "Tier 1", "schoolType": "Middle", "isCharter": false, "bond": "$9M", "fci": "35.10%", "address": "612 E Yampa St, Colorado Springs, CO 80903", "zip": "80903"}, "geometry": {"type": "Point", "coordinates": [-104.813819, 38.847662]}}, {"type": "Feature", "properties": {"name": "Russell Middle", "tier": 1, "tierLabel": "Tier 1", "schoolType": "Middle", "isCharter": false, "bond": "$9M", "fci": "39.10%", "address": "3825 E Montebello Dr, Colorado Springs, CO 80918", "zip": "80918"}, "geometry": {"type": "Point", "coordinates": [-104.757782, 38.904979]}}, {"type": "Feature", "properties": {"name": "Sabin Middle", "tier": 1, "tierLabel": "Tier 1", "schoolType": "Middle", "isCharter": false, "bond": "$7M", "fci": "32.60%", "address": "3605 N Carefree Cir, Colorado Springs, CO 80917", "zip": "80917"}, "geometry": {"type": "Point", "coordinates": [-104.751661, 38.882734]}}, {"type": "Feature", "properties": {"name": "Swigert Middle", "tier": 1, "tierLabel": "Tier 1", "schoolType": "Middle", "isCharter": false, "bond": "$9M", "fci": "37.20%", "address": "4220 E Pikes Peak Ave, Colorado Springs, CO 80909", "zip": "80909"}, "geometry": {"type": "Point", "coordinates": [-104.750682, 38.834298]}}, {"type": "Feature", "properties": {"name": "West K-8", "tier": 2, "tierLabel": "Tier 2", "schoolType": "K-8", "isCharter": false, "bond": "$3M", "fci": "31.90%", "address": "1920 W Pikes Peak Ave, Colorado Springs, CO 80904", "zip": "80904"}, "geometry": {"type": "Point", "coordinates": [-104.853401, 38.842952]}}, {"type": "Feature", "properties": {"name": "Coronado High", "tier": 1, "tierLabel": "Tier 1", "schoolType": "High", "isCharter": false, "bond": "$20M", "fci": "29.70%", "address": "1590 W Fillmore St, Colorado Springs, CO 80904", "zip": "80904"}, "geometry": {"type": "Point", "coordinates": [-104.859247, 38.869391]}}, {"type": "Feature", "properties": {"name": "Doherty High", "tier": 1, "tierLabel": "Tier 1", "schoolType": "High", "isCharter": false, "bond": "$20M", "fci": "35.20%", "address": "4515 Barnes Rd, Colorado Springs, CO 80917", "zip": "80917"}, "geometry": {"type": "Point", "coordinates": [-104.7565, 38.9012]}}, {"type": "Feature", "properties": {"name": "Mitchell High", "tier": 1, "tierLabel": "Tier 1", "schoolType": "High", "isCharter": false, "bond": "$15M", "fci": "27.40%", "address": "1205 Potter Dr, Colorado Springs, CO 80909", "zip": "80909"}, "geometry": {"type": "Point", "coordinates": [-104.752644, 38.849554]}}, {"type": "Feature", "properties": {"name": "Palmer High", "tier": 1, "tierLabel": "Tier 1", "schoolType": "High", "isCharter": false, "bond": "$150M", "fci": "28.80%", "address": "301 N Nevada Ave, Colorado Springs, CO 80903", "zip": "80903"}, "geometry": {"type": "Point", "coordinates": [-104.821292, 38.838098]}}, {"type": "Feature", "properties": {"name": "RJWAC (Roy J. Wasson Academic Center)", "tier": 1, "tierLabel": "Tier 1", "schoolType": "Alternative", "isCharter": false, "bond": "$8M", "fci": "\u2014", "address": "2115 Afton Way, Colorado Springs, CO 80909", "zip": "80909"}, "geometry": {"type": "Point", "coordinates": [-104.783832, 38.861004]}}, {"type": "Feature", "properties": {"name": "Academy ACL (Charter)", "tier": 3, "tierLabel": "Tier 3", "schoolType": "Charter", "isCharter": true, "bond": "\u2014", "fci": "\u2014", "address": "2510 N Chestnut St, Colorado Springs, CO 80907", "zip": "80907"}, "geometry": {"type": "Point", "coordinates": [-104.836406, 38.868355]}}, {"type": "Feature", "properties": {"name": "CIVA Charter High", "tier": 3, "tierLabel": "Tier 3", "schoolType": "Charter", "isCharter": true, "bond": "\u2014", "fci": "\u2014", "address": "4635 Northpark Dr, Colorado Springs, CO 80918", "zip": "80918"}, "geometry": {"type": "Point", "coordinates": [-104.826706, 38.899178]}}, {"type": "Feature", "properties": {"name": "Colorado Military Academy", "tier": 2, "tierLabel": "Tier 2", "schoolType": "Charter", "isCharter": true, "bond": "$8.68M", "fci": "\u2014", "address": "360 Command View, Colorado Springs, CO 80915", "zip": "80915"}, "geometry": {"type": "Point", "coordinates": [-104.697322, 38.837357]}}, {"type": "Feature", "properties": {"name": "Community Prep. (Charter)", "tier": 3, "tierLabel": "Tier 3", "schoolType": "Charter", "isCharter": true, "bond": "\u2014", "fci": "\u2014", "address": "332 E Willamette Ave, Colorado Springs, CO 80903", "zip": "80903"}, "geometry": {"type": "Point", "coordinates": [-104.818459, 38.84233]}}, {"type": "Feature", "properties": {"name": "East Hills", "tier": 3, "tierLabel": "Tier 3", "schoolType": "Charter", "isCharter": true, "bond": "$1.24M", "fci": "\u2014", "address": "1001 E Van Buren St, Colorado Springs, CO 80907", "zip": "80907"}, "geometry": {"type": "Point", "coordinates": [-104.80546, 38.868163]}}, {"type": "Feature", "properties": {"name": "Eastlake (Charter)", "tier": 3, "tierLabel": "Tier 3", "schoolType": "Charter", "isCharter": true, "bond": "$1M", "fci": "\u2014", "address": "1810 Eastlake Blvd, Colorado Springs, CO 80910", "zip": "80910"}, "geometry": {"type": "Point", "coordinates": [-104.793715, 38.823558]}}, {"type": "Feature", "properties": {"name": "James Irwin (Charter)", "tier": 2, "tierLabel": "Tier 2", "schoolType": "Charter", "isCharter": true, "bond": "$3.1M", "fci": "\u2014", "address": "5525 Astrozon Blvd, Colorado Springs, CO 80916", "zip": "80916"}, "geometry": {"type": "Point", "coordinates": [-104.728958, 38.798837]}}, {"type": "Feature", "properties": {"name": "Roosevelt (Charter)", "tier": 2, "tierLabel": "Tier 2", "schoolType": "Charter", "isCharter": true, "bond": "$4.44M", "fci": "\u2014", "address": "205 Bryon Dr, Colorado Springs, CO 80910", "zip": "80910"}, "geometry": {"type": "Point", "coordinates": [-104.749712, 38.832495]}}, {"type": "Feature", "properties": {"name": "Thomas MacLaren (Charter)", "tier": 1, "tierLabel": "Tier 1", "schoolType": "Charter", "isCharter": true, "bond": "$24M", "fci": "\u2014", "address": "1702 N Murray Blvd, Colorado Springs, CO 80915", "zip": "80915"}, "geometry": {"type": "Point", "coordinates": [-104.747975, 38.857449]}}]}