{
"type": "FeatureCollection",
"name": "Voting_Service_Polling_Center_Locations",
"crs": { "type": "name", "properties": { "name": "urn:ogc:def:crs:OGC:1.3:CRS84" } },
"features": [
{ "type": "Feature", "properties": { "OBJECTID_1": 436, "NAME": "Southeast Branch (EPC Clerk's Office)", "ADDRESS": "5650 Industrial Pl., Colorado Springs, CO  80916" }, "geometry": { "type": "Point", "coordinates": [ -104.723094015401657, 38.823915993601574 ] } },
{ "type": "Feature", "properties": { "OBJECTID_1": 437, "NAME": "Downtown/Centennial Hall", "ADDRESS": "200 S. Cascade Ave., Colorado Springs, CO  80903" }, "geometry": { "type": "Point", "coordinates": [ -104.826281025803866, 38.830171995250367 ] } },
{ "type": "Feature", "properties": { "OBJECTID_1": 438, "NAME": "North Branch (EPC Clerk's Office)", "ADDRESS": "8830 N. Union Blvd., Colorado Springs, CO  80920" }, "geometry": { "type": "Point", "coordinates": [ -104.766610495615936, 38.959552399977738 ] } },
{ "type": "Feature", "properties": { "OBJECTID_1": 439, "NAME": "Fort Carson (EPC Clerk's Office)", "ADDRESS": "6351 Wetzel Ave., Bldg. 1525, Fort Carson, CO  80913" }, "geometry": { "type": "Point", "coordinates": [ -104.789351031593782, 38.740116994944756 ] } },
{ "type": "Feature", "properties": { "OBJECTID_1": 440, "NAME": "UCCS", "ADDRESS": "4785 Clyde Way, Colorado Springs, CO  80918" }, "geometry": { "type": "Point", "coordinates": [ -104.807777309097133, 38.900417536655013 ] } },
{ "type": "Feature", "properties": { "OBJECTID_1": 441, "NAME": "Pikes Peak Regional Development Center", "ADDRESS": "2880 International Cir., Colorado Springs, CO  80910" }, "geometry": { "type": "Point", "coordinates": [ -104.790391979543557, 38.826422015626811 ] } },
{ "type": "Feature", "properties": { "OBJECTID_1": 442, "NAME": "Zalman Center at Harrison High School", "ADDRESS": "2755 Janitell Rd., Colorado Springs, CO  80906" }, "geometry": { "type": "Point", "coordinates": [ -104.79327086690688, 38.792419272337476 ] } },
{ "type": "Feature", "properties": { "OBJECTID_1": 443, "NAME": "Citizens Service Center (Main Office)", "ADDRESS": "1675 W. Garden of the Gods Rd., Colorado Springs, CO  80907" }, "geometry": { "type": "Point", "coordinates": [ -104.860250030167364, 38.895457004577167 ] } },
{ "type": "Feature", "properties": { "OBJECTID_1": 444, "NAME": "Sand Creek Library", "ADDRESS": "1821 S. Academy Blvd., Colorado Springs, CO  80916" }, "geometry": { "type": "Point", "coordinates": [ -104.755546984133943, 38.806237009963532 ] } },
{ "type": "Feature", "properties": { "OBJECTID_1": 445, "NAME": "Manitou Springs City Hall - Memorial Hall", "ADDRESS": "606 Manitou Ave., Manitou Springs, CO  80829" }, "geometry": { "type": "Point", "coordinates": [ -104.912813029302654, 38.857867019119361 ] } },
{ "type": "Feature", "properties": { "OBJECTID_1": 446, "NAME": "East Library", "ADDRESS": "5550 N. Union Blvd., Colorado Springs, CO  80918" }, "geometry": { "type": "Point", "coordinates": [ -104.778249032467869, 38.912623981285748 ] } },
{ "type": "Feature", "properties": { "OBJECTID_1": 447, "NAME": "El Paso County Fair and Events Complex - Swink Hall", "ADDRESS": "366 10th St., Calhan, CO  80808" }, "geometry": { "type": "Point", "coordinates": [ -104.296063037668702, 39.030873985054924 ] } },
{ "type": "Feature", "properties": { "OBJECTID_1": 448, "NAME": "Ruth Holley Library", "ADDRESS": "685 N. Murray Blvd., Colorado Springs, CO  80915" }, "geometry": { "type": "Point", "coordinates": [ -104.746034026409433, 38.84292598268955 ] } },
{ "type": "Feature", "properties": { "OBJECTID_1": 449, "NAME": "The Independence Center", "ADDRESS": "729 S. Tejon St., Colorado Springs, CO  80903" }, "geometry": { "type": "Point", "coordinates": [ -104.823756984027099, 38.823583987192947 ] } },
{ "type": "Feature", "properties": { "OBJECTID_1": 450, "NAME": "Library 21c", "ADDRESS": "1175 Chapel Hills Dr., Colorado Springs, CO  80920" }, "geometry": { "type": "Point", "coordinates": [ -104.793086008346734, 38.953329017213598 ] } },
{ "type": "Feature", "properties": { "OBJECTID_1": 451, "NAME": "Meridian Ranch Recreation Center", "ADDRESS": "10301 Angeles Rd., Falcon, CO  80831" }, "geometry": { "type": "Point", "coordinates": [ -104.599280983058875, 38.980124996640491 ] } },
{ "type": "Feature", "properties": { "OBJECTID_1": 452, "NAME": "Fountain Utilities Department", "ADDRESS": "101 N. Main St., Fountain, CO  80817" }, "geometry": { "type": "Point", "coordinates": [ -104.700994959390826, 38.683358979961753 ] } },
{ "type": "Feature", "properties": { "OBJECTID_1": 453, "NAME": "Falcon Legacy Campus", "ADDRESS": "11990 Swingline Rd., Peyton, CO  80831" }, "geometry": { "type": "Point", "coordinates": [ -104.605727001705773, 38.933908984823574 ] } },
{ "type": "Feature", "properties": { "OBJECTID_1": 454, "NAME": "The Lodge at Cathedral Pines", "ADDRESS": "13977 Milam Rd., Colorado Springs, CO  80908" }, "geometry": { "type": "Point", "coordinates": [ -104.737315931378149, 39.033799712022571 ] } },
{ "type": "Feature", "properties": { "OBJECTID_1": 455, "NAME": "Hillside Community Center", "ADDRESS": "925 S. Institute St., Colorado Springs, CO  80903" }, "geometry": { "type": "Point", "coordinates": [ -104.807779987568182, 38.820567005118853 ] } },
{ "type": "Feature", "properties": { "OBJECTID_1": 456, "NAME": "Woodmoor Barn Community Center", "ADDRESS": "1691 Woodmoor Dr., Monument, CO  80132" }, "geometry": { "type": "Point", "coordinates": [ -104.857766974471076, 39.102304018703336 ] } },
{ "type": "Feature", "properties": { "OBJECTID_1": 457, "NAME": "Vanguard Church", "ADDRESS": "3950 N. Academy Blvd., Colorado Springs, CO  80917" }, "geometry": { "type": "Point", "coordinates": [ -104.758629008715445, 38.888665987259905 ] } },
{ "type": "Feature", "properties": { "OBJECTID_1": 458, "NAME": "Town of Monument Public Works Building", "ADDRESS": "259 Beacon Lite Rd., Monument, CO  80132" }, "geometry": { "type": "Point", "coordinates": [ -104.868625981504195, 39.092294015383324 ] } },
{ "type": "Feature", "properties": { "OBJECTID_1": 459, "NAME": "Creekside Success Center - District 49", "ADDRESS": "3850 Pony Tracks Dr., Colorado Springs, CO  80922" }, "geometry": { "type": "Point", "coordinates": [ -104.704538996054097, 38.885897989320476 ] } },
{ "type": "Feature", "properties": { "OBJECTID_1": 460, "NAME": "Pikes Peak State College - Rampart Range Campus", "ADDRESS": "2070 Interquest Pkwy., Colorado Springs, CO  80921" }, "geometry": { "type": "Point", "coordinates": [ -104.789079961076567, 38.992653009058579 ] } },
{ "type": "Feature", "properties": { "OBJECTID_1": 461, "NAME": "Pikes Peak State College - Centennial Campus", "ADDRESS": "5675 S. Academy Blvd., Colorado Springs, CO  80906" }, "geometry": { "type": "Point", "coordinates": [ -104.78796298785376, 38.764096991769129 ] } },
{ "type": "Feature", "properties": { "OBJECTID_1": 462, "NAME": "Worner Campus Center", "ADDRESS": "902 N. Cascade Ave., Colorado Springs, CO  80903" }, "geometry": { "type": "Point", "coordinates": [ -104.825434034645426, 38.84710800756573 ] } },
{ "type": "Feature", "properties": { "OBJECTID_1": 463, "NAME": "Envoy Church", "ADDRESS": "2025 N. Murray Blvd., Colorado Springs, CO  80915" }, "geometry": { "type": "Point", "coordinates": [ -104.747006998204412, 38.863002987871347 ] } },
{ "type": "Feature", "properties": { "OBJECTID_1": 464, "NAME": "Vista Grande Baptist Church", "ADDRESS": "5680 Stetson Hills Blvd., Colorado Springs, CO  80917" }, "geometry": { "type": "Point", "coordinates": [ -104.721202974548021, 38.911655995752874 ] } },
{ "type": "Feature", "properties": { "OBJECTID_1": 465, "NAME": "Family Success Center - Pikes Peak United Way", "ADDRESS": "1520 Verde Dr., Colorado Springs, CO  80910" }, "geometry": { "type": "Point", "coordinates": [ -104.770726024011836, 38.810731009298117 ] } },
{ "type": "Feature", "properties": { "OBJECTID_1": 466, "NAME": "Charles C. \"Chuck\" Brown Transportation & Environmental Complex", "ADDRESS": "3275 Akers Dr., Colorado Springs, CO  80922" }, "geometry": { "type": "Point", "coordinates": [ -104.687488692188992, 38.881285868804099 ] } },
{ "type": "Feature", "properties": { "OBJECTID_1": 467, "NAME": "Fountain Valley YMCA", "ADDRESS": "326 W. Alabama Ave., Fountain, CO  80817" }, "geometry": { "type": "Point", "coordinates": [ -104.706571020959089, 38.684945002607151 ] } },
{ "type": "Feature", "properties": { "OBJECTID_1": 468, "NAME": "Rock Family Church", "ADDRESS": "4005 Lee Vance Vw., Colorado Springs, CO  80918" }, "geometry": { "type": "Point", "coordinates": [ -104.754474015946627, 38.935670986747944 ] } },
{ "type": "Feature", "properties": { "OBJECTID_1": 469, "NAME": "Victory World Outreach", "ADDRESS": "3150 S. Academy Blvd., Colorado Springs, CO  80916" }, "geometry": { "type": "Point", "coordinates": [ -104.760303965313327, 38.787715014800092 ] } },
{ "type": "Feature", "properties": { "OBJECTID_1": 470, "NAME": "St. Dominic Catholic Church", "ADDRESS": "5354 S. US Highway 85-87, Security, CO  80911" }, "geometry": { "type": "Point", "coordinates": [ -104.748347013271569, 38.753433994589273 ] } },
{ "type": "Feature", "properties": { "OBJECTID_1": 471, "NAME": "Solid Rock Christian Center", "ADDRESS": "2520 Arlington Dr., Colorado Springs, CO  80910" }, "geometry": { "type": "Point", "coordinates": [ -104.77796396450394, 38.808736996402068 ] } },
{ "type": "Feature", "properties": { "OBJECTID_1": 472, "NAME": "Green Mountain Falls Town Hall", "ADDRESS": "10615 Green Mountain Falls Rd., Green Mountain Falls, CO  80819" }, "geometry": { "type": "Point", "coordinates": [ -105.014597172081423, 38.939109371240555 ] } },
{ "type": "Feature", "properties": { "OBJECTID_1": 473, "NAME": "Family of Christ Lutheran Church", "ADDRESS": "675 W. Baptist Rd., Colorado Springs, CO  80921" }, "geometry": { "type": "Point", "coordinates": [ -104.839787960526451, 39.055815007663973 ] } }
]
}
